OPTICUBE 04             
1 41851U 16067D   19045.20346084  .00000469  00000-0  46275-4 0  9992
2 41851  97.9152 141.3487 0010345  82.7449 277.4947 14.96758259123292
AEROCUBE 8D             
1 41852U 16067E   19045.19740726  .00000366  00000-0  37389-4 0  9994
2 41852  97.9163 141.1698 0010968  82.6226 277.6241 14.96636560123277
AEROCUBE 8C             
1 41853U 16067F   19045.21735779  .00000630  00000-0  60541-4 0  9990
2 41853  97.9169 141.1358 0011672  83.0931 277.1618 14.96606207123276
PROMETHEUS 2-1          
1 41854U 16067G   19045.20105007  .00000665  00000-0  63366-4 0  9991
2 41854  97.9169 141.2021 0011702  83.6710 276.5843 14.96779348123270
PROMETHEUS 2-3          
1 41855U 16067H   19045.20373766  .00000762  00000-0  71822-4 0  9995
2 41855  97.9173 141.2159 0011934  83.8763 276.3818 14.96781950123277
INS-1B                  
1 41954U 17008G   19044.59420575  .00001185  00000-0  52419-4 0  9994
2 41954  97.4163 111.2001 0008282 217.1938 142.8726 15.23611914110759
BGUSAT                  
1 41999U 17008BD  19044.74699994  .00002048  00000-0  83529-4 0  9998
2 41999  97.4222 113.2206 0006978 232.2751 127.7855 15.25566693110248
DIDO-2                  
1 42000U 17008BE  19045.17422446  .00000854  00000-0  38587-4 0  9993
2 42000  97.4176 112.2985 0007199 235.8595 124.1960 15.23657372110245
PEASSS                  
1 42015U 17008BV  19044.82018073  .00001038  00000-0  45060-4 0  9996
2 42015  97.4180 112.7190 0004979 242.5452 117.5280 15.24557008110729
AL-FARABI 1             
1 42016U 17008BW  19044.86747475  .00001326  00000-0  55841-4 0  9994
2 42016  97.4192 113.1719 0004873 241.3666 118.7082 15.25109507110879
NAYIF-1 (EO-88)         
1 42017U 17008BX  19045.18558729  .00001366  00000-0  57387-4 0  9994
2 42017  97.4189 113.4960 0004852 240.1126 119.9630 15.25140109110945
HAVELSAT                
1 42700U 98067LH  19044.78388378  .00458620  11131-3  58962-3 0  9991
2 42700  51.6180 179.3074 0005356 328.9022  31.1673 16.06602852100268
CXBN-2                  
1 42704U 98067LM  19045.19799351  .00438441  10126-3  58970-3 0  9999
2 42704  51.6218 179.1724 0006129 330.5268  29.5398 16.05872982100227
PHOENIX                 
1 42706U 98067LP  19044.84805306  .00075584  00000-0  32326-3 0  9999
2 42706  51.6257 192.8160 0001463 338.3431  21.7510 15.84464619100008
QBEE50-LTU-OC           
1 42708U 98067LR  19044.81322051  .00492287  12856-3  60796-3 0  9999
2 42708  51.6179 180.2794 0006368 326.9851  33.0763 16.07223499100118
ALTAIR PATHFINDER       
1 42711U 98067LS  19045.03909862  .00026978  00000-0  19944-3 0  9993
2 42711  51.6316 212.3432 0002650  18.8400 341.2696 15.72751719 99420
SHARC                   
1 42712U 98067LT  19045.05815498  .00094380  00000-0  45003-3 0  9994
2 42712  51.6299 207.9694 0001000 309.5196  50.5718 15.82069603 99724
ZA-AEROSAT              
1 42713U 98067LU  19044.85523452  .00067601  00000-0  31541-3 0  9996
2 42713  51.6317 198.2019 0001641 348.2069  11.8895 15.82665191 99594
CSUNSAT1                
1 42715U 98067LW  19044.85195895  .00086199  00000-0  34783-3 0  9998
2 42715  51.6291 195.1495 0002351 351.9582   8.1384 15.85624737 99632
SPACECUBE               
1 42717U 98067LY  19044.81718854  .00423244  94616-4  57662-3 0  9999
2 42717  51.6130 180.9351 0005487 328.0733  31.9945 16.05676895 99187
NJUST-1                 
1 42722U 98067MB  19044.93252703  .00041726  00000-0  22778-3 0  9995
2 42722  51.6379 202.3686 0002902  66.1441  20.3831 15.79452351 98615
LILACSAT-1 (LO-90)      
1 42725U 98067ME  19044.93337155  .00130755  17653-4  37176-3 0  9998
2 42725  51.6309 189.4097 0001659 343.9685 109.7497 15.93106986 98690
NSIGHT                  
1 42726U 98067MF  19045.05642842  .00018429  00000-0  17808-3 0  9992
2 42726  51.6367 223.9047 0004793  65.1228 295.0266 15.66496856 98255
SNUSAT-1B               
1 42727U 98067MG  19044.83649794  .00153919  20011-4  45660-3 0  9990
2 42727  51.6261 190.3590 0003157 352.9221   7.1741 15.92214304 98639
SNUSAT-1                
1 42733U 98067MN  19044.84161333  .00233920  33320-4  50755-3 0  9995
2 42733  51.6224 185.8130 0004474 338.7785  21.3038 15.97866021 98589
BEEAGLESAT              
1 42736U 98067MR  19044.81818552  .00099744  00000-0  37715-3 0  9997
2 42736  51.6280 194.0870 0002019  50.0136 310.1046 15.86906551 98538
UCLSAT                  
1 42765U 17036A   19044.80041744  .00001127  00000-0  51713-4 0  9999
2 42765  97.3693 105.3851 0010306 314.6419  45.3976 15.22423636 92058
LITUANICASAT-2          
1 42768U 17036D   19044.57782072  .00001775  00000-0  79990-4 0  9998
2 42768  97.3722 104.7246 0013855 302.8137  57.1765 15.22277528 91270
AALTO-1                 
1 42775U 17036L   19044.74910119  .00000703  00000-0  34613-4 0  9993
2 42775  97.3682 104.3592 0012627 302.2173  57.7838 15.21121931 91219
URSA MAIOR              
1 42776U 17036M   19044.72005666  .00000769  00000-0  37475-4 0  9995
2 42776  97.3690 104.4404 0012447 302.2840  57.7189 15.21239510 91215
COMPASS 2               
1 42777U 17036N   19044.93678934  .00001399  00000-0  63374-4 0  9990
2 42777  97.3721 105.5114 0011201 303.7553  56.2615 15.22472590 91288
DIAMOND RED             
1 42783U 17036U   19044.86890735  .00000881  00000-0  41663-4 0  9996
2 42783  97.3693 105.1507 0010952 314.5221  45.5120 15.21933911 91267
PEGASUS                 
1 42784U 17036V   19044.87061093  .00000988  00000-0  45997-4 0  9997
2 42784  97.3697 105.3143 0010858 314.3365  45.6981 15.22194112 91272
DIAMOND GREEN           
1 42785U 17036W   19044.93344656  .00000863  00000-0  40889-4 0  9991
2 42785  97.3695 105.2342 0010856 315.0104  45.0252 15.21933271 91347
DIAMOND BLUE            
1 42786U 17036X   19044.73520748  .00000870  00000-0  41172-4 0  9992
2 42786  97.3696 105.0392 0010727 316.1491  43.8893 15.21933400 91239
NUDTSAT                 
1 42787U 17036Y   19045.20405986  .00001397  00000-0  62309-4 0  9992
2 42787  97.3710 106.1274 0010424 313.5106  46.5265 15.23012888 91194
SUCHAI                  
1 42788U 17036Z   19044.90940628  .00001168  00000-0  53303-4 0  9996
2 42788  97.3700 105.5719 0010416 313.7336  46.3038 15.22554244 91360
SKCUBE                  
1 42789U 17036AA  19044.91796815  .00001097  00000-0  50337-4 0  9990
2 42789  97.3697 105.5457 0010282 313.8418  46.1968 15.22477661 91286
VZLUSAT-1               
1 42790U 17036AB  19044.92841102  .00001435  00000-0  63914-4 0  9994
2 42790  97.3707 105.8617 0009849 313.4409  46.6007 15.23020900 91307
ROBUSTA-1B              
1 42792U 17036AD  19044.92789562  .00001126  00000-0  51373-4 0  9990
2 42792  97.3696 105.6717 0009883 315.0082  45.0353 15.22638663 91305
CICERO 6                
1 42793U 17036AE  19044.76185663  .00000793  00000-0  37361-4 0  9995
2 42793  97.3683 105.3869 0009156 317.9242  42.1291 15.22334379 91349
D-SAT                   
1 42794U 17036AF  19044.78512369  .00000057  00000-0  10479-4 0  9999
2 42794  97.5588  94.8617 0126372 197.2282 162.4630 14.91019222 89726
TOKI                    
1 42820U 98067MU  19044.87771076  .00094641  00000-0  38545-3 0  9999
2 42820  51.6285 198.2909 0001930 329.8768  30.2124 15.85397639 91940
MAZAALAI (NUMSAT-1)     
1 42822U 98067MW  19044.80500190  .00080869  00000-0  34981-3 0  9998
2 42822  51.6304 200.0958 0001720 344.5051  15.5900 15.84200240 91911
BRAC ONNESHA            
1 42823U 98067MX  19044.88838413  .00087353  00000-0  36606-3 0  9990
2 42823  51.6276 199.1414 0002656   3.4031 356.6990 15.84832793 91937
NIGERIAEDUSAT-1         
1 42824U 98067MY  19044.78645935  .00089011  00000-0  38870-3 0  9993
2 42824  51.6313 200.7834 0002479  17.4128 342.6959 15.83961680 91870
CORVUS BC2              
1 42846U 17042X   19045.20068902  .00000268  00000-0  31808-4 0  9994
2 42846  97.5798 304.0608 0011063 107.3227 252.9203 14.91921211 86452
CORVUS BC1              
1 42847U 17042Y   19044.75986765 -.00000039  00000-0  14587-5 0  9993
2 42847  97.5799 303.7230 0010727 107.9673 252.2717 14.92020894 86381
SILU-1 (SILKROAD 1)     
1 42903U 17021F   19045.08939413  .00095610  11607-4  27475-3 0  9993
2 42903  42.7721 285.7485 0017651 236.7064 236.5208 15.92402996 88188
MIRATA                  
1 43015U 17073C   19043.76502563  .00000621  00000-0  54473-4 0  9998
2 43015  97.7177 329.9208 0255565 207.7997 150.9361 14.78693897 66688
MAKERSAT 0              
1 43016U 17073D   19044.77692273  .00000409  00000-0  37688-4 0  9992
2 43016  97.7211 331.0768 0257554 204.6813 154.1896 14.78532645 66824
ASTERIA                 
1 43020U 98067NH  19044.94888994  .00012293  00000-0  12492-3 0  9994
2 43020  51.6409 234.5614 0001981  12.8112 347.2933 15.65622983 70280
DELLINGR (RBLE)         
1 43021U 98067NJ  19045.14996619  .00008216  00000-0  10217-3 0  9995
2 43021  51.6379 240.3270 0001900   4.0132 356.0877 15.60937449 70226
OSIRIS-3U               
1 43027U 98067NL  19044.88204958  .00315201  50858-4  73997-3 0  9998
2 43027  51.6311 208.2011 0005275 299.8407  60.2076 15.96368640 70508
AEROCUBE 7B             
1 43042U 17071F   19044.90877110  .00003157  00000-0  86788-4 0  9997
2 43042  51.6389 302.6050 0005431  67.9829 292.1732 15.40362949 66840
AEROCUBE 7C             
1 43043U 17071G   19044.90891404  .00002853  00000-0  79389-4 0  9991
2 43043  51.6392 302.6176 0005538  69.2784 290.8794 15.40358474 66815
CHEFSAT                 
1 43044U 17071H   19045.15160479  .00005493  00000-0  13470-3 0  9992
2 43044  51.6393 298.3149 0005357  70.9073 289.2493 15.42332235 66892
ASGARDIA 1              
1 43049U 17071N   19044.93573671  .00002818  00000-0  78241-4 0  9990
2 43049  51.6399 302.0647 0003146  87.6510 272.4835 15.40468561 66821
ISARA                   
1 43050U 17071P   19045.19543474  .00004870  00000-0  12210-3 0  9992
2 43050  51.6388 298.5802 0003042  87.0873 273.0461 15.41929888 66887
